 2018 12 6 1356 45.4 LP 67.405  23.520  0.0F BER 24 1.1 1.6LBER         1.6LHEL1
 GAP= 61        2.89       3.3     9.4  0.0  0.5818E+01  0.0000E+00  0.0000E+00E
 ARC _NN             2018 12 6 1356 13   300                                   6
 ACTION:UP  19-06-07 12:51 OP:mls  STATUS:               ID:20181206135643 L   I
 OLDACT:UP  19-03-13 13:00 OP:mls  STATUS:               ID:20181206135643 L   3
 OLDACT:UP  19-03-13 12:51 OP:mls  STATUS:               ID:20181206135643 L   3
 OLDACT:UP  19-03-13 12:15 OP:aup  STATUS:               ID:20181206135643 L   3
 OLDACT:UP  18-12-07 11:48 OP:mls  STATUS:               ID:20181206135556 L   3
 OLDACT:REE 18-12-07 11:47 OP:mls  STATUS:               ID:20181206135556 L   3
 2018 1206 1356 44.2 LE 67.426  23.320  0.0FFHEL 22 0.6 1.6LHEL                1
 GAP=114         0.1     0.8     3.1                    0.2                    5
 FULLY AUTOMATIC, EVENT TYPE & LOCATION & MAGNITUDE CHECKED (SAR)              3
 CSS:2018340135544.WFDISC  (DET3C)                                             6
 SWEDEN                                                                        3
 STAT SP IPHASW D HRMM SECON CODA AMPLIT PERI AZIMU VELO SNR AR TRES W  DIS CAZ7
 KLF  BZ  PG      1356 49.80                              90    0.0210 26.9 135 
 KLF  BZ  SG      1356 54.98                              90    1.9910 26.9 135 
 LANU BZ  PG      1356 58.92                              90   -2.1310 96.8 319 
 ERTU BZ  PB      1357 02.10                              61   -2.1410  111 212 
 ERTU BZ  SB      1357 15.40                              61   -2.7610  111 212 
 HEF  BZ  PG      1357 02.50                              90   -0.9710  112   3 
 HEF  BZ  MSG     1357 14.54        10.7 0.17                           112   3 
 HEF  BZ  SB      1357 16.80                              61   -1.5210  112   3 
 RNF  BZ  PG      1357 08.44                              90    0.4310  140 128 
 RNF  BZ  SB      1357 26.36                              61    1.2010  140 128 
 TOF  BZ  PG      1357 09.98                              90    0.0410  152 166 
 TOF  BZ  MSG     1357 26.71         4.2 0.17                           152 166 
 TOF  BZ  SG      1357 28.56                              90    0.4810  152 166 
 KALU BZ  PG      1357 12.52                              90   -0.7310  172 182 
 KTK1 HZ EP       1357 12.83                              50   -0.3910  180 356 
 KTK1 HN ES       1357 34.53                              50    0.7510  180 356 
 KTK1 HZ  IAML    1357 38.19         6.7 0.20                           180 356 
 RANF BZ  PG      1357 19.53                  318.0       90  2 1.7010  201 133 
 KIF  BZ  PG      1357 18.04                              90   -2.0010  215 330 
 KIF  BZ  MSG     1357 39.92         6.5 0.17                           215 330 
 KIF  BZ  SN      1357 42.80                              50    1.4410  215 330 
 RAJF BZ  PB      1357 21.43                              61   -0.0410  234  57 
 RAJF BZ  SG      1357 51.00                              90    0.0110  234  57 
 KMNF BZ  PB      1357 22.08                              61   -0.5410  242  35 
 KMNF BZ  SB      1357 50.64                              61    0.5110  242  35 
 VRF  BZ  PB      1357 26.28                              61    0.8310  262  79 
 VRF  BZ  MSG     1357 55.98         3.9 0.17                           262  79 
 VRF  BZ  SG      1357 58.08                              90   -0.8810  262  79 
 OUL  BZ  PB      1357 27.78                              61   -0.1810  280 156 
 OLKF BZ  PB      1357 28.48                              61   -0.1910  285 112 
 OLKF BZ  MSG     1358  2.20         2.1 0.17                           285 112 
 OLKF BZ  SG      1358 05.32                              90   -0.0210  285 112 
 MSF  BZ  PB      1357 29.88                              61   -0.3010  295 122 
 MSF  BZ  SG      1358 07.56                              90   -0.7710  295 122 
 OBF4 BZ  PB      1357 30.18                              61   -0.2910  298 165 
 OBF4 BZ  MSG     1358  4.27         0.9 0.17                           298 165 
 KEV  BZ  PN      1357 29.42                              50    1.5010  298  27 
 KEV  BZ  MSG     1358  3.75         2.2 0.17                           298  27 
 KEV  BZ  SB      1358 04.56                              61    0.6310  298  27 
 KU6  BZ  PB      1357 32.98                              61   -0.6710  320 116 
 KU6  BZ  MSG     1358 11.26         1.2 0.17                           320 116 
 KU6  BZ  SG      1358 14.40                              90   -0.9110  320 116 
 OUF  BZ  PB      1357 36.28                              61   -0.6110  343 170 
 OUF  BZ  MSG     1358 15.92         1.1 0.17                           343 170 
 FAUS HZ EP       1357 34.70                              50   -0.0410  353 273 
 FAUS HE ES       1358 13.33                              50    2.1010  353 273 
 FAUS HZ  IAML    1358 24.09         4.1 0.54                           353 273 
 STEI HZ EP       1357 34.78                              50   -0.2910  356 283 
 STEI HE ES       1358 13.96                              50    2.1610  356 283 
 STEI HZ  IAML    1358 37.28         3.1 0.78                           356 283 
 UMAU BZ  PN      1357 44.24                              50    1.9610  414 200 
 LOF  HE ES   2   1358 30.07                              50    2.47 5  429 285 
 LOF  HZ  IAML    1358 44.64         5.2 0.72                           429 285