 2008  5 7 1645 19.6 D  36.077 141.721 39.1F BER 17 0.5 6.3bBER         6.1BPDE1
 GAP=347        1.32      21.1   170.7  0.0 -0.1479E+03  0.0000E+00  0.0000E+00E
 2008  5 7 1645 20.3 D  36.158 141.521 39.1  PDE498     6.1BPDE 6.7SPDE 6.8WUCM1
 ACTION:UP  19-06-07 12:33 OP:mls  STATUS:               ID:20080507164519 L   I
 2008-05-07-1656-26S.OSL___001                                                 6
 2008-05-07-1656-41S.SNART_003                                                 6
 2008-05-07-1656-18S.DOM___001                                                 6
 2008-05-07-1655-28S.MOR___003                                                 6
 2008-05-07-1656-37S.SUE___006                                                 6
 2008-05-07-1655-47S.LOF___006                                                 6
 2008-05-07-1656-41S.WNN___003                                                 6
 2008-05-07-1657-19M.BLS5__003                                                 6
 2008-05-07-1639-59S.NSN___030                                                 6
 2008  5 7 1645 24.8 D  37.101 141.552 33.0F*NAO  1                     6.4BNAO1
     228  NEAR EAST COAST OF EASTERN HONS                                      3
 STAT SP IPHASW D HRMM SECON CODA AMPLIT PERI AZIMU VELO AIN AR TRES W  DIS CAZ7
 KBS  BZ IP     C 1655 32.76                              29    0.1210 6855 350 
 KBS  BZ  AMb     1655 47.70       395.7 1.40                          6855 350 
 KBS  BE ES       17 3 52.15                              31   -0.1110 6855 350 
 BJO1 BZ EP       1655 44.79                              29    0.0710 7055 345 
 KTK1 HN EP       1656  1.81                              28    0.7310 7332 340 
 KTK1 HN  AMb     1656 11.52       163.8 0.30                          7332 340 
 TRO  BZ IP     C 1656  4.99                              27   -0.9110 7417 341 
 TRO  BZ  AMb     1656  9.78       313.2 0.79                          7417 341 
 LOF  SZ IP     C 1656 22.74                              27    1.44 9 7689 342 
 MOR8 SZ IP     C 1656 27.59                              26   -0.1810 7804 340 
 MOR8 SZ  AMB     1656 36.82       467.6 1.19                          7804 340 
 STOK EZ EP       1656 30.08                              26   -0.2710 7852 340 
 STOK EZ  AMb     1656 44.51       418.2 2.53                          7852 340 
 DOMB SZ IP     C 1656 56.91                              25    0.4610 8338 339 
 DOMB SZ  AMB     1657 11.30       481.7 1.29                          8338 339 
 NB2  SZ  P       1656 57.80                   39.3 19.0  25  0 0.3010 8358 337 
 OSL  SZ EP       1657  2.95                              24   -0.2510 8470 337 
 KONO BZ IP     C 1657  6.36                              24   -0.1510 8535 337 
 SUE  SZ EP       1657  8.73                              24    0.6710 8567 340 
 ASK  EZ EP       1657  9.07                              24   -1.0110 8606 340 
 BER  EZ IP     C 1657  9.63                              24   -0.6610 8611 339 
 BER  HZ IP     C 1657 10.39                              24           8611 339 
 EGD  EZ EP       1657 10.56                              24   -0.4310 8624 339 
 BLS5 HZ EP       1657 12.76                              24   -0.1910 8662 338 
 SNARTEZ IP     C 1657 17.01                              23    0.4910 8734 337 
                                                                                
