 1983 0308           L  60.53   10.69  15.0FFBER  0                     1.4    1
 Event from Erik Hicks. No time information available. Included because of the 3
 precense of a fault plane solution. 9/10 2002, mbs.                           3
     121.6      63.8    -152.9                                               B F
 Fps from Kibsgaard, A., Focal mechanism studies of/by the SV to P amplitude   3
 ratio, Cand. Sci. thesis, 115pp., Univ. of Oslo, 1985. 20/9 2002, mbs.        3
 ACTION:UP  19-06-07 12:16 OP:mls  STATUS:               ID:19830308000000 L   I
 STAT SP IPHASW D HRMM SECON CODA AMPLIT PERI AZIMU VELO AIN AR TRES W  DIS CAZ7
                                                                                
