 2019  612 1547 47.5 LQ 61.008   3.915 0.00  BER 38 .80 1.9LBER                1
 GAP=200        2.15       2.8     7.6  4.2 -0.2716E+01  0.1220E+02 -0.2411E+01E
      61.0      42.0    -122.0 10.0  4.0  5.0  0.1  0.2           20. FPFIT    F
    288.29     49.73    -70.17                               2    20. FOCMEC D F
 ARC _BAS            2019  612 1547 17   300                                   6
 ARC _GRA            2019  612 1547 17   300                                   6
 ARC _SN             2019  612 1546 35   300                                   6
 No fps without allowing one polarity error. 15/1-2020, nt.                    3
 OLDACT:UP  19-10-13 13:50 OP:bms  STATUS:               ID:20190612154747     3
 OLDACT:REE 19-06-13 09:01 OP:bms  STATUS:               ID:20190612154705 L   3
 OLDACT:UP  20-05-29 20:58 OP:bms  STATUS:               ID:20190612154748 L   3
 OLDACT:UP  20-01-30 17:46 OP:nt   STATUS:               ID:20190612154747     3
 OLDACT:UP  20-01-15 14:50 OP:nt   STATUS:               ID:20190612154747     3
 OLDACT:UP  20-06-16 22:09 OP:mls  STATUS:               ID:20190612154748 L   3
 OLDACT:UPS 20-10-27 19:52 OP:bms  STATUS:               ID:20190612154747 S   3
 ACTION:SPL 20-12-01 09:19 OP:lo   STATUS:               ID:20190612154747 S   I
 OLDACT:UPS 20-10-28 18:20 OP:bms  STATUS:               ID:20190612154747 S   3
 STAT COM NTLO IPHASE   W HHMM SS.SSS   PAR1  PAR2 AGA OPE  AIN  RES W  DIS CAZ7
 SUE  H Z      IP         1547 55.000      D               90.00.04010 46.0  83 
 SUE  H N      ES         1548  0.590                      90.00.14010 46.0  83 
 SUE  H Z       IAML      1548  0.880  124.2  0.09                     46.0  83 
 BAS01H Z      IP         1547 58.220      C               90.00.63010 62.3 129 
 BAS01H E      ES         1548  5.480                      90.00.46010 62.3 129 
 BAS01H Z       IAML      1548  6.450  103.3  0.13                     62.3 129 
 BAS02H Z      IP         1547 59.690      C               90.00.51010 72.1 128 
 BAS02H E      ES         1548  8.620                      90.00.83010 72.1 128 
 BAS02H Z       IAML      1548  8.960   53.8  0.10                     72.1 128 
 FOO  H Z      EP         1548  1.450      C               90.0-.50010 89.3  42 
 FOO  H E      ES         1548 11.660                      90.0-.94010 89.3  42 
 FOO  H Z       IAML      1548 15.240   64.1  0.15                     89.3  42 
 ASK  H Z      IP         1548  2.860      C               90.00.50010 91.8 130 
 ASK  H E      ES         1548 13.870                      90.00.56010 91.8 130 
 ASK  H Z       IAML      1548 16.720   53.6  0.15                     91.8 130 
 BAS15H Z      EP         1548  4.680      C               90.00.60010  102 145 
 BAS15H E      ES         1548 17.130                      90.00.82010  102 145 
 BAS15H Z       IAML      1548 18.760   27.8  0.15                      102 145 
 BER  H Z      EP         1548  4.810      C               90.00.51010  104 131 
 BER  H E      ES         1548 16.970                      90.00.27010  104 131 
 BER  H Z       IAML      1548 19.010  111.5  0.16                      104 131 
 BAS05H Z      EP         1548  5.790                      90.0 1.2810  105 126 
 BAS05H N      ES         1548 17.110                      90.00.04010  105 126 
 BAS05H Z       IAML      1548 19.820   75.6  0.25                      105 126 
 BAS16H Z      EP         1548  6.010                      90.00.63010  111 141 
 BAS16H E      ES         1548 18.870                      90.00.29010  111 141 
 BAS16H Z       IAML      1548 20.590   19.6  0.13                      111 141 
 BAS06H Z      EP         1548  7.370                      90.00.46010  120 126 
 BAS06H E      ES         1548 21.310                      90.00.07010  120 126 
 BAS06H Z       IAML      1548 23.370   33.2  0.28                      120 126 
 BAS17H Z      EP         1548  7.390                      90.00.25010  121 138 
 BAS17H E      ES         1548 21.870                      90.00.23010  121 138 
 BAS17H Z       IAML      1548 24.570   25.0  0.31                      121 138 
 HYA  H Z      EP         1548  7.110      C               90.0-.40010  124  81 
 HYA  H E      ES         1548 21.730                      90.0-.54010  124  81 
 HYA  H Z       IAML      1548 24.670   45.7  0.18                      124  81 
 BAS08H Z      EP         1548  9.860                      90.00.70010  134 127 
 BAS08H E      ES         1548 25.040                      90.0-.12010  134 127 
 BAS08H Z       IAML      1548 26.650   48.0  0.14                      134 127 
 BAS18H Z      EP         1548  9.520      C               70.0-.38010  139 138 
 BAS18H E      ES         1548 26.900                      70.00.46010  139 138 
 BAS18H Z       IAML      1548 28.230   57.6  0.34                      139 138 
 BAS09H Z      EP         1548 10.270                      70.0-.24010  143 127 
 BAS09H E      ES         1548 27.460                      70.0-.04010  143 127 
 BAS09H Z       IAML      1548 29.350   59.4  0.30                      143 127 
 BAS19H Z      EP         1548 11.320                      50.0-.62010  153 137 
 BAS19H Z       IAML      1548 32.220   35.1  0.09                      153 137 
 BAS20H Z      IP         1548 12.060      C               50.0-.73010  159 136 
 BAS20H E      ES         1548 32.500                      50.0 1.0310  159 136 
 BAS20H Z       IAML      1548 35.480   26.8  0.17                      159 136 
 BAS10H Z      EP         1548 12.480      C               50.0-.42010  160 126 
 BAS10H N      ES         1548 31.000                      50.0-.66010  160 126 
 BAS10H Z       IAML      1548 33.950   44.2  0.11                      160 126 
 BAS21H Z      IP         1548 13.890      D               50.0-.59010  173 136 
 BAS21H N      ES         1548 35.790                      50.0 1.3910  173 136 
 BAS21H Z       IAML      1548 37.040   10.5  0.27                      173 136 
 BAS11H E      ES         1548 36.950                      50.0 1.6810  177 126 
 BAS22H Z      EP         1548 15.060                      50.0-.61010  183 135 
 BAS22H E      ES         1548 38.170                      50.0 1.6910  183 135 
 ODD1 H E      ESg        1548 41.210                      90.0-.45010  193 128 
 ODD1 H Z       IAML      1548 42.110   24.3  0.16                      193 128 
 BAS12H Z      EP         1548 16.730      D               50.0-.27010  193 126 
 BAS12H E      ESg        1548 41.130                      90.0-.53010  193 126 
 BAS12H Z       IAML      1548 41.370    9.7  0.16                      193 126 
 ODD1 H Z      EP         1548 16.710      D               50.0-.30010  193 128 
 BAS14H Z      EP         1548 18.430                      50.0-.23010  206 128 
 BAS14H E      ESg        1548 44.500                      90.0-.93010  206 128 
 BAS14H Z       IAML      1548 46.060   48.8  0.31                      206 128 
 AKN  H Z      EP         1548 19.660      C               50.00.63010  209  50 
 AKN  H N      ES         1548 43.530                      50.0 1.2010  209  50 
 AKN  H Z       IAML      1548 46.620   18.5  0.18                      209  50 
 KMY  H Z      EP         1548 18.450      C               50.0-1.0510  213 159 
 KMY  H E      ESg        1548 46.800                      90.0-.64010  213 159 
 KMY  H Z       IAML      1548 48.910    5.8  0.17                      213 159 
 GRA07E Z      EP         1548 19.620                      50.00.04010  214 202 
 GRA03E E      ES         1548 43.780                      50.00.23010  215 202 
 GRA03E E       IAML      1548 45.340   49.5  0.66                      215 202 
 GRA10E Z      EP         1548 19.920                      50.00.02010  217 201 
 GRA10E N      ES         1548 43.720                      50.0-.13010  217 201 
 GRA10E N       IAML      1548 48.270   18.8  0.51                      217 201 
 GRA04E Z      EP         1548 20.460                      50.00.04010  221 202 
 BLS5 H Z      EP         1548 20.590      C               50.0-.51010  226 140 
 BLS5 H E      ESg        1548 49.660                      90.0-1.2810  226 140 
 BLS5 H Z       IAML      1548 50.120   12.7  0.31                      226 140 
 SKAR H Z      EP         1548 23.200                      50.00.15010  241  97 
 SKAR H E      ES         1548 48.630                      50.0-.69010  241  97 
 SKAR H Z       IAML      1548 56.870   20.2  0.21                      241  97 
 MOL  H Z      EP         1548 27.100                      50.0 1.9510  259  46 
 DOMB H Z      EP       2 1548 30.350                      50.0-.060 5  301  64 
 SNARTE Z      EP         1548 35.720                      50.0-.81010  350 147 
 SNARTE E      ESg        1549 23.190                      90.0-2.7110  350 147 
 SNARTE Z       IAML      1549 28.110   18.9  0.36                      350 147 
 NC204B Z      EP         1548 38.490      D               50.0-.53010  370  82 
 NC204B N      ES         1549 16.840                      50.0-.28010  370  82 
 NAO01B Z      EP         1548 39.720                      50.0-.31010  378  90 
 NAO01B E      ES         1549 17.600                      50.0-1.2610  378  90 
 NAO01B Z       IAML      1549 36.610    7.2  0.21                      378  90 
 HOMB H Z      EP         1548 42.050                      50.0-.61010  400 138 
                                                                                
