 2008  614  821 44.0 L                       BER  2                            1
 ACTION:UPD 19-06-07 12:33 OP:mls  STATUS:               ID:20080614082144 L   I
 2008-06-14-0821-44S.HOPEN_003                                                 6
 2008-06-14-0822-00S.KBS___003                                                 6
 STAT SP IPHASW D HRMM SECON CODA AMPLIT PERI AZIMU VELO AIN AR TRES W  DIS CAZ7
 HOPENHZ EP        822 21.58  129                                               
 KBS  BZ EP        822 15.37                                                    
 HOPENHN ES        822 41.03                                                    
 KBS  BE ES        822 28.99                                                    
 HOPENHZ  AML      822 45.25         5.2 0.13                                   
 KBS  BZ  IAML     822 31.36        14.6 0.16                                   
                                                                                
