 2008  1 7 2256 43.4 Ls 66.320  13.371  6.0F BER  6 0.0 1.9LBER 2.2CBER 2.1LNAO1
 GAP=286        0.24       1.3     2.9  0.0 -0.5499E+00  0.0000E+00  0.0000E+00E
  297.7600   80.7300  -67.6900     1  0.0   0.0        1      0.11    FOCMEC B F
      10.0      63.0    -164.0                    0.00  3.0 23.0  0.0 HASH     3
 fps: foc and has similar, stable, foc:1,1,0.2                                 3
 depth: with local model, clear depth at 6.0                                   3
 ACTION:UP  19-06-07 12:32 OP:mls  STATUS:               ID:20080107225644 L   I
 2008-01-07-2256-38S.NSS___003                                                 6
 2008-01-07-2258-36M.KTK___003                                                 6
 2008-01-07-2255-53S.MOR___003                                                 6
 2008-01-07-2256-06S.STOK__003                                                 6
 2008-01-07-2256-07S.KONS__003                                                 6
 2008-01-07-2256-04S.FLOS__003                                                 6
 2008-01-07-2256-36S.STEI__003                                                 6
 2008-01-07-2255-59S.LOF___006                                                 6
 2008 0107 2256 44.7 L  66.329  13.740       NAO  4 2.2                 2.1LNAO1
                 1.9     0.1     0.2   -1.0                                    5
     646  NORTHERN NORWAY                                                      3
 STAT SP IPHASW D HRMM SECON CODA AMPLIT PERI AZIMU VELO AIN AR TRES W  DIS CAZ7
 FLOS EZ IP     D 2256 44.42                             163   -0.0110 1.87 349 
 FLOS EZ  AMPG    2256 44.48      7286.6 0.06                          1.87 349 
 FLOS EN ES       2256 45.18                             163   -0.0110 1.87 349 
 FLOS ET  AMSG    2256 45.32     44182.0 0.13                          1.87 349 
 FLOS EZ  AML     2256 45.36       840.3 0.19                          1.87 349 
 FLOS EZ  AMSG    2256 45.38      8541.9 0.18                          1.87 349 
 STOK EZ IP     C 2256 46.17   74                        111    0.0110 15.9 275 
 STOK EZ  AMPG    2256 46.28      9227.2 0.12                          15.9 275 
 STOK EN ES       2256 48.18                             111   -0.0110 15.9 275 
 STOK EZ  AMSG    2256 48.51      2891.7 0.16                          15.9 275 
 STOK ET  AMSG    2256 48.52      4132.1 0.18                          15.9 275 
 KONS EZ IP     C 2256 47.28   89                        105    0.0310 23.0 331 
 KONS EZ  AMPG    2256 47.57       400.4 0.05                          23.0 331 
 KONS EZ ES       2256 50.07                             105   -0.0110 23.0 331 
 KONS ET  AMSG    2256 50.36      4585.8 0.17                          23.0 331 
 KONS EZ  AMSG    2256 50.58      4013.3 0.11                          23.0 331 
 KONS EZ  AML     2256 50.88       362.5 0.28                          23.0 331 
 MOR8 SZ IP   4 D 2256 53.14  155                         96   -0.20 0 61.2  93 
 MOR8 SZ ES   4   2257  1.05                              96    0.37 0 61.2  93 
 MOR8 SZ  AML     2257  2.06       129.9 0.17                          61.2  93 
 STEI EZ EP   4   2257 15.47   99                         50    2.75 0  197  23 
 STEI EN ESg  4   2257 39.23                              92    0.48 0  197  23 
 STEI EZ  AML 4   2257 41.61        13.9 0.27                           197  23 
 LOF  SZ IP   4 C 2257 15.47                              50    2.09 0  202   2 
 LOF  SZ ES   4   2257 38.44                              50    2.89 0  202   2 
 LOF  SZ  AML     2257 45.37         9.2 0.42                           202   2 
 NSS  BZ EP   4   2257 16.46  150                         50    2.13 0  210 199 
 NSS  BZ ES   4   2257 41.48                              50    4.28 0  210 199 
 NSS  BZ  AML     2257 44.52         9.1 0.39                           210 199 
 NB2  SZ  Pn  4   2258 07.05                    8.0  7.7  50  0 4.45 0  598 191 
 NB2  SZ  Lg  4   2259 31.17                              50    1.63 0  598 191 
 ARA0 SZ  Pn  4   2258 06.30                  233.0  8.3  50 -7 0.87 0  621  49 
 ARA0 SZ  Sn  4   2259 08.02                  235.6  5.0  50 -4 1.91 0  621  49 
 ARA0 SZ  Lg  4   2259 34.42                  231.6  4.0   0 -8-1.51 0  621  49 
 HFS  SZ  Sn  4   2259 27.69                   14.0  6.9  50 15 6.78 0  690 178 
 HFS  SZ  Lg  4   2259 58.12                    3.6  3.6   0  5 3.15 0  690 178 
 FIA0 SZ  Pn  4   2258 31.87                  326.6  8.7  50 10 1.13 0  825 125 
 FIA0 SZ  Sn  4   2259 52.97                              50    2.82 0  825 125 
 FIA0 SZ  Lg  4   2300 34.17                  327.9  4.4  39 11 1.56 0  825 125 
                                                                                
