 2019  6 1 0624 49.5 LQ 61.046   4.010 15.0F BER  9 0.5 1.4LBER                1
 GAP=241        1.15       2.5    11.3  0.0 -0.6224E+01  0.0000E+00  0.0000E+00E
 2019-06-01-0623-44S.N_SEA_171                                                 6
 OLDACT:REE 19-06-03 07:52 OP:bms  STATUS:               ID:20190601062344 L   3
 Calculated depth is uncertain, depth set to 15km                             B3
 ACTION:UP  19-10-13 13:50 OP:bms  STATUS:               ID:20190601062449     I
 STAT SP IPHASW D HRMM SECON CODA AMPLIT PERI AZIMU VELO AIN AR TRES W  DIS CAZ7
 SUE  HZ IP     D  624 55.76                             103   -0.5810 40.5  88 
 SUE  HN ES        625  1.25                             103   -0.1710 40.5  88 
 SUE  HZ  IAML     625  1.52        42.7 0.15                          40.5  88 
 FOO  HZ EP   2    625  1.77                              93   -0.92 5 82.7  42 
 FOO  HE ES        625 12.11                              93   -0.3510 82.7  42 
 FOO  HZ  IAML     625 13.90        20.0 0.18                          82.7  42 
 ASK  HZ EP        625  3.45                              93   -0.4710 90.8 134 
 ASK  HE ES        625 14.11                              93   -0.4910 90.8 134 
 ASK  HZ  IAML     625 15.16        10.7 0.07                          90.8 134 
 HYA  HZ EP        625  7.50                              92   -0.5410  118  83 
 HYA  HN ES        625 22.02                              92    0.2510  118  83 
 HYA  HZ  IAML     625 23.35        18.3 0.27                           118  83 
 ODD1 HN ESg  2    625 41.54                              91    0.34 5  192 130 
 AKN  HZ EP        625 19.87                              55    1.2210  203  50 
 AKN  HN ESg       625 44.09                              91   -0.0110  203  50 
 AKN  HZ  IAML     625 45.48         9.8 0.14                           203  50 
 KMY  HN ESg       625 47.80                              91    0.3010  216 161 
 KMY  HZ  IAML     625 57.29         9.2 0.78                           216 161 
 BLS5 HE ESg       625 50.32                              91    0.0610  226 142 
 BLS5 HZ  IAML     625 51.94         3.3 0.21                           226 142 
 SKAR HZ EP        625 23.16                              55    0.2310  237  98 
 SKAR HN ESg       625 53.82                              91    0.6710  237  98 
 SKAR HZ  IAML     625 58.21         2.3 0.20                           237  98 
                                                                                
 2019  6 1 0730 26.4 LP 66.375  14.644  0.0F BER  6 1.7 0.9LBER                1
 GAP=111        3.72       9.5    18.3  0.0  0.2696E+02  0.0000E+00  0.0000E+00E
 2019-06-01-0728-44S.M_NOR_081                                                 6
 Probably explosion at Rana Gruber, Storforshei, Nordland                     B3
 ACTION:UPD 19-10-13 13:50 OP:bms  STATUS:               ID:20190601073026     I
 STAT SP IPHASW D HRMM SECON CODA AMPLIT PERI AZIMU VELO AIN AR TRES W  DIS CAZ7
 MOR8 HZ EP        730 26.83                              92   -1.3810 11.0 159 
 MOR8 HE ES        730 29.24                              92   -0.2810 11.0 159 
 KONS EZ EP        730 35.86                              90   -1.7910 69.5 282 
 VAGH HZ EP        730 36.15                              90   -2.0210 72.7 304 
 VAGH HE ES        730 45.81                              90   -1.0410 72.7 304 
 VAGH HE  IAML     730 47.50         6.0 0.31                          72.7 304 
 STOK HZ EP        730 37.44                              90   -0.7610 72.9 267 
 STOK HE ES        730 50.11                              90    3.2010 72.9 267 
 LEIR HE ES        730 48.75                              90    1.3410 74.7 248 
 SALU HZ EP        730 57.79                              50    0.6410  203  55 
 SALU HE ES        731 21.97                              50    2.0910  203  55 
                                                                                
